*******************************************************************************
Ephemeris / WWW_USER Mon Mar 24 11:07:11 2025 Pasadena, USA      / Horizons    
*******************************************************************************
Target body name: (2018 VA2)                      {source: JPL#8}
Center body name: Earth (399)                     {source: DE441}
Center-site name: Mauna Kea
*******************************************************************************
Start time      : A.D. 2018-Aug-28 04:50:00.0000 UT      
Stop  time      : A.D. 2018-Aug-28 15:56:00.0000 UT      
Step-size       : 1 minutes
*******************************************************************************
Target pole/equ : undefined
Target radii    : undefined                                                    
Center geodetic : 204.5278, 19.8260847, 4.21024   {E-lon(deg),Lat(deg),Alt(km)}
Center cylindric: 204.5278, 6006.35451, 2151.0229 {E-lon(deg),Dxy(km),Dz(km)}
Center pole/equ : ITRF93                          {East-longitude positive}
Center radii    : 6378.137, 6378.137, 6356.752 km {Equator_a, b, pole_c}       
Target primary  : Sun
Vis. interferer : MOON (R_eq= 1737.400) km        {source: DE441}
Rel. light bend : Sun                             {source: DE441}
Rel. lght bnd GM: 1.3271E+11 km^3/s^2                                          
Small-body perts: Yes                             {source: SB441-N16}
Atmos refraction: NO (AIRLESS)
RA format       : HMS
Time format     : CAL 
Calendar mode   : Mixed Julian/Gregorian
RTS-only print  : NO       
EOP file        : eop.250321.p250617                                           
EOP coverage    : DATA-BASED 1962-JAN-20 TO 2025-MAR-21. PREDICTS-> 2025-JUN-16
Units conversion: 1 au= 149597870.700 km, c= 299792.458 km/s, 1 day= 86400.0 s 
Table cut-offs 1: Elevation (-90.0deg=NO ),Airmass (>38.000=NO), Daylight (YES)
Table cut-offs 2: Solar elongation (  0.0,180.0=NO ),Local Hour Angle( 0.0=NO )
Table cut-offs 3: RA/DEC angular rate (     0.0=NO )                           
*******************************************************************************
Initial IAU76/J2000 heliocentric ecliptic osculating elements (au, days, deg.):
  EPOCH=  2458428.5 ! 2018-Nov-06.00 (TDB)         Residual RMS= .39675        
   EC= .3242664208426159   QR= .935847567628844    TP= 2458464.9625425939      
   OM= 226.0068906557846   W=  220.7446970607937   IN= 3.947636678272312       
  Equivalent ICRF heliocentric cartesian coordinates (au, au/d):
   X= 7.314601530918681E-01  Y= 6.289465658343808E-01  Z= 2.763726037901882E-01
  VX=-1.554701504922309E-02 VY= 1.109318211007817E-02 VZ= 3.366540373951610E-03
Asteroid physical parameters (km, seconds, rotational period in hours):        
   GM= n.a.                RAD= n.a.               ROTPER= n.a.                
   H= 27.08                G= .150                 B-V= n.a.                   
                           ALBEDO= n.a.            STYP= n.a.                  
*******************************************************************************
 Date__(UT)__HR:MN     R.A._________(ICRF)_________DEC
******************************************************
$$SOE
 2018-Aug-28 13:02  m  00 31 08.458881 +16 25 26.94606
 2018-Aug-28 13:03  m  00 31 08.481250 +16 25 27.48159
 2018-Aug-28 13:04  m  00 31 08.503622 +16 25 28.01701
 2018-Aug-28 13:05  m  00 31 08.525998 +16 25 28.55230
 2018-Aug-28 13:06  m  00 31 08.548378 +16 25 29.08748
 2018-Aug-28 13:07  m  00 31 08.570762 +16 25 29.62254
 2018-Aug-28 13:08  m  00 31 08.593150 +16 25 30.15748
 2018-Aug-28 13:09  m  00 31 08.615542 +16 25 30.69231
 2018-Aug-28 13:10  m  00 31 08.637939 +16 25 31.22701
 2018-Aug-28 13:11  m  00 31 08.660341 +16 25 31.76160
 2018-Aug-28 13:12  m  00 31 08.682747 +16 25 32.29607
 2018-Aug-28 13:13  m  00 31 08.705157 +16 25 32.83043
 2018-Aug-28 13:14  m  00 31 08.727573 +16 25 33.36467
 2018-Aug-28 13:15  m  00 31 08.749994 +16 25 33.89878
 2018-Aug-28 13:16  m  00 31 08.772420 +16 25 34.43279
 2018-Aug-28 13:17  m  00 31 08.794851 +16 25 34.96667
 2018-Aug-28 13:18  m  00 31 08.817288 +16 25 35.50044
 2018-Aug-28 13:19  m  00 31 08.839730 +16 25 36.03409
 2018-Aug-28 13:20  m  00 31 08.862178 +16 25 36.56763
 2018-Aug-28 13:21  m  00 31 08.884632 +16 25 37.10105
 2018-Aug-28 13:22  m  00 31 08.907091 +16 25 37.63435
 2018-Aug-28 13:23  m  00 31 08.929557 +16 25 38.16753
 2018-Aug-28 13:24  m  00 31 08.952028 +16 25 38.70060
 2018-Aug-28 13:25  m  00 31 08.974506 +16 25 39.23355
 2018-Aug-28 13:26  m  00 31 08.996991 +16 25 39.76639
 2018-Aug-28 13:27  m  00 31 09.019482 +16 25 40.29911
 2018-Aug-28 13:28  m  00 31 09.041979 +16 25 40.83172
 2018-Aug-28 13:29  m  00 31 09.064483 +16 25 41.36421
 2018-Aug-28 13:30  m  00 31 09.086995 +16 25 41.89658
 2018-Aug-28 13:31  m  00 31 09.109513 +16 25 42.42884
 2018-Aug-28 13:32  m  00 31 09.132038 +16 25 42.96098
 2018-Aug-28 13:33  m  00 31 09.154570 +16 25 43.49301
 2018-Aug-28 13:34  m  00 31 09.177110 +16 25 44.02493
 2018-Aug-28 13:35  m  00 31 09.199658 +16 25 44.55672
 2018-Aug-28 13:36  m  00 31 09.222213 +16 25 45.08841
 2018-Aug-28 13:37  m  00 31 09.244775 +16 25 45.61998
 2018-Aug-28 13:38  m  00 31 09.267346 +16 25 46.15143
 2018-Aug-28 13:39  m  00 31 09.289924 +16 25 46.68277
 2018-Aug-28 13:40  m  00 31 09.312511 +16 25 47.21400
 2018-Aug-28 13:41  m  00 31 09.335106 +16 25 47.74511
 2018-Aug-28 13:42  m  00 31 09.357709 +16 25 48.27611
 2018-Aug-28 13:43  m  00 31 09.380321 +16 25 48.80699
 2018-Aug-28 13:44  m  00 31 09.402941 +16 25 49.33777
 2018-Aug-28 13:45  m  00 31 09.425570 +16 25 49.86842
 2018-Aug-28 13:46  m  00 31 09.448207 +16 25 50.39897
 2018-Aug-28 13:47  m  00 31 09.470854 +16 25 50.92940
 2018-Aug-28 13:48  m  00 31 09.493509 +16 25 51.45972
 2018-Aug-28 13:49  m  00 31 09.516174 +16 25 51.98993
 2018-Aug-28 13:50  m  00 31 09.538848 +16 25 52.52002
 2018-Aug-28 13:51  m  00 31 09.561532 +16 25 53.05000
 2018-Aug-28 13:52  m  00 31 09.584225 +16 25 53.57987
 2018-Aug-28 13:53  m  00 31 09.606927 +16 25 54.10963
 2018-Aug-28 13:54  m  00 31 09.629640 +16 25 54.63928
 2018-Aug-28 13:55  m  00 31 09.652362 +16 25 55.16881
 2018-Aug-28 13:56  m  00 31 09.675094 +16 25 55.69823
 2018-Aug-28 13:57  m  00 31 09.697837 +16 25 56.22754
 2018-Aug-28 13:58  m  00 31 09.720589 +16 25 56.75674
 2018-Aug-28 13:59  m  00 31 09.743352 +16 25 57.28583
 2018-Aug-28 14:00  m  00 31 09.766125 +16 25 57.81481
 2018-Aug-28 14:01  m  00 31 09.788909 +16 25 58.34368
 2018-Aug-28 14:02  m  00 31 09.811704 +16 25 58.87244
 2018-Aug-28 14:03  m  00 31 09.834509 +16 25 59.40109
 2018-Aug-28 14:04  m  00 31 09.857326 +16 25 59.92963
 2018-Aug-28 14:05  m  00 31 09.880153 +16 26 00.45806
 2018-Aug-28 14:06  m  00 31 09.902992 +16 26 00.98638
 2018-Aug-28 14:07  m  00 31 09.925842 +16 26 01.51459
 2018-Aug-28 14:08  m  00 31 09.948703 +16 26 02.04269
 2018-Aug-28 14:09  m  00 31 09.971576 +16 26 02.57068
 2018-Aug-28 14:10  m  00 31 09.994460 +16 26 03.09856
 2018-Aug-28 14:11  m  00 31 10.017356 +16 26 03.62634
 2018-Aug-28 14:12  m  00 31 10.040264 +16 26 04.15401
 2018-Aug-28 14:13  m  00 31 10.063184 +16 26 04.68156
 2018-Aug-28 14:14  m  00 31 10.086116 +16 26 05.20902
 2018-Aug-28 14:15  m  00 31 10.109060 +16 26 05.73636
 2018-Aug-28 14:16  m  00 31 10.132016 +16 26 06.26360
 2018-Aug-28 14:17  m  00 31 10.154985 +16 26 06.79073
 2018-Aug-28 14:18  m  00 31 10.177966 +16 26 07.31775
 2018-Aug-28 14:19  m  00 31 10.200960 +16 26 07.84467
 2018-Aug-28 14:20  m  00 31 10.223967 +16 26 08.37148
 2018-Aug-28 14:21  m  00 31 10.246986 +16 26 08.89818
 2018-Aug-28 14:22  m  00 31 10.270019 +16 26 09.42478
 2018-Aug-28 14:23  m  00 31 10.293064 +16 26 09.95127
 2018-Aug-28 14:24  m  00 31 10.316123 +16 26 10.47766
 2018-Aug-28 14:25  m  00 31 10.339195 +16 26 11.00394
 2018-Aug-28 14:26  m  00 31 10.362281 +16 26 11.53012
 2018-Aug-28 14:27  m  00 31 10.385380 +16 26 12.05619
 2018-Aug-28 14:28  m  00 31 10.408492 +16 26 12.58216
 2018-Aug-28 14:29  m  00 31 10.431619 +16 26 13.10802
 2018-Aug-28 14:30  m  00 31 10.454759 +16 26 13.63378
 2018-Aug-28 14:31  m  00 31 10.477913 +16 26 14.15944
 2018-Aug-28 14:32  m  00 31 10.501081 +16 26 14.68499
 2018-Aug-28 14:33  m  00 31 10.524264 +16 26 15.21044
 2018-Aug-28 14:34  m  00 31 10.547460 +16 26 15.73579
 2018-Aug-28 14:35  m  00 31 10.570672 +16 26 16.26103
 2018-Aug-28 14:36  m  00 31 10.593897 +16 26 16.78617
 2018-Aug-28 14:37  m  00 31 10.617137 +16 26 17.31121
 2018-Aug-28 14:38  m  00 31 10.640392 +16 26 17.83615
 2018-Aug-28 14:39  m  00 31 10.663662 +16 26 18.36099
 2018-Aug-28 14:40  m  00 31 10.686947 +16 26 18.88572
 2018-Aug-28 14:41  m  00 31 10.710246 +16 26 19.41036
 2018-Aug-28 14:42  m  00 31 10.733561 +16 26 19.93489
 2018-Aug-28 14:43  m  00 31 10.756891 +16 26 20.45933
 2018-Aug-28 14:44  m  00 31 10.780237 +16 26 20.98366
 2018-Aug-28 14:45  m  00 31 10.803598 +16 26 21.50789
 2018-Aug-28 14:46  m  00 31 10.826974 +16 26 22.03203
 2018-Aug-28 14:47  m  00 31 10.850366 +16 26 22.55606
 2018-Aug-28 14:48  m  00 31 10.873774 +16 26 23.08000
 2018-Aug-28 14:49  m  00 31 10.897198 +16 26 23.60383
 2018-Aug-28 14:50  m  00 31 10.920638 +16 26 24.12757
 2018-Aug-28 14:51 Am  00 31 10.944094 +16 26 24.65121
 2018-Aug-28 14:52 Am  00 31 10.967566 +16 26 25.17476
 2018-Aug-28 14:53 Am  00 31 10.991054 +16 26 25.69820
 2018-Aug-28 14:54 Am  00 31 11.014559 +16 26 26.22155
 2018-Aug-28 14:55 Am  00 31 11.038080 +16 26 26.74480
 2018-Aug-28 14:56 Am  00 31 11.061618 +16 26 27.26796
 2018-Aug-28 14:57 Am  00 31 11.085172 +16 26 27.79101
 2018-Aug-28 14:58 Am  00 31 11.108743 +16 26 28.31398
 2018-Aug-28 14:59 Am  00 31 11.132331 +16 26 28.83684
 2018-Aug-28 15:00 Am  00 31 11.155937 +16 26 29.35961
 2018-Aug-28 15:01 Am  00 31 11.179559 +16 26 29.88229
 2018-Aug-28 15:02 Am  00 31 11.203198 +16 26 30.40487
 2018-Aug-28 15:03 Am  00 31 11.226855 +16 26 30.92736
 2018-Aug-28 15:04 Am  00 31 11.250529 +16 26 31.44975
